#dP2024  3 18  0  0  0.00000000      96 __u+U IGS20 FIT  IAC
## 2306  86400.00000000   900.00000000 60387 0.0000000000000
+  120   C06C07C08C09C10C11C12C13C14C16C19C20C21C22C23C24C25
+        C26C27C28C29C30C32C33C34C35C36C37C38C39C40C41C42C43
+        C44C45C46E02E03E04E05E07E08E09E10E11E12E13E14E15E18
+        E19E21E24E25E26E27E30E31E33E34E36G01G02G03G04G05G06
+        G07G08G09G10G11G12G13G14G15G16G17G18G19G20G21G22G23
+        G24G25G26G27G28G29G30G31G32J02J03J04R01R02R03R04R05
+        R07R08R09R11R12R13R14R15R16R17R18R19R20R21R22R24R25
+        R26  0  0  0  0  0  0  0  0  0  0  0  0  0  0  0  0
++         9  8  7 10  7  8  8  7  9  9  7  6  6  7  6  7  5
++         6  6  7  8  6  8  7  7  6  7  7  8  9  9  7  7  6
++         9  7  6  6  6  6  6  6  6  6  5  7  6  6  6  5  6
++         7  7  5  5  6  6  5  6  6  5  7  6  5  6  6  6  5
++         6  6  6  6  6  6  6  6  5  6  6  5  6  6  6  6  5
++         6  6  6  6  8  6  6  6  6  8  8  0  5  6  6  6  7
++         6  6  6  6  6  6  5  6  6  7  8  7  6  8  6  6  6
++         6  0  0  0  0  0  0  0  0  0  0  0  0  0  0  0  0
%c M  cc GPS ccc cccc cccc cccc cccc ccccc ccccc ccccc ccccc
%c cc cc ccc ccc cccc cccc cccc cccc ccccc ccccc ccccc ccccc
%f  0.0000000  0.000000000  0.00000000000  0.000000000000000
%f  0.0000000  0.000000000  0.00000000000  0.000000000000000
%i    0    0    0    0      0      0      0      0         0
%i    0    0    0    0      0      0      0      0         0
/* INFORMATION & ANALYSIS CENTER (IAC)      ULTRA-RAPID DATA
/* S/V CLOCKS ARE ALIGNED TO GNSS TIME                      
/* G:C1WC2W R:C1PC2P E:C1XC5X C:C2IC6I J:C1CC2S             
/* PCV:IGS20_2290 OL/AL:FES2004  NONE     YN ORB:CoN CLK:CoN
*  2024 03 18 14 45  0.00000000
PC06 -17635.700453  35320.393730 -15171.212548    281.881226
PC07  -4130.440566  35509.425158 -22117.720481   -903.827445
PC08  -9559.278903  18692.574057  36543.331618     51.237189
PC09 -13152.892923  34149.540734 -21019.437692   -638.090161
PC10   2954.158273  38274.857164 -16476.848348     39.811025
PC11 -10250.624537 -13194.478020 -22285.868528    466.209302
PC12   3553.317754 -25550.659239 -10600.992164   -215.486013
PC13   -254.686879  21915.559214  36194.062831    425.678778
PC14 -19349.640106 -19529.982602   4999.942942    434.765332
PC16 -21244.125862  34801.633942 -11122.419757   -403.693350
PC19  21016.634954  12411.106150 -13471.736875   -918.594569
PC20  15446.833991  23066.227710   2660.689787   -269.413785
PC21     52.729991 -20715.860812 -18692.510959   -961.388115
PC22  14827.143205  -6052.679777 -22847.229633    -70.441798
PC23 -25965.050912   8058.691855  -6290.391037   -776.183549
PC24  -9875.024946 -14485.459228  21688.690485    953.239148
PC25 -25559.455936  -3648.882456  10552.711284    352.595803
PC26  10559.485926 -16278.026077  20048.371264   -264.541626
PC27  -9402.214994  26188.551210   2201.815032    286.433601
PC28 -17330.102435  17571.441716 -13026.192099    218.513785
PC29  15761.412071   3532.974316  22748.910993    256.241592
PC30   4415.793872  21821.735529  16829.816890    -40.276957
PC32    -32.849544  20646.590788  18784.617216   -585.208385
PC33 -21143.091619 -12351.502192  13415.576048   -959.309972
PC34  -5615.711093 -20715.001848 -17836.162305    392.820415
PC35  16738.661179 -18019.523719  13132.853804    408.241902
PC36  25325.684850   4456.152479 -10836.225729     22.425536
PC37 -11251.538593  15984.554917 -19902.297620   -946.089662
PC38 -18112.443938  18717.271398  33177.939446    143.498813
PC39 -23130.412896  35027.085896  -5061.089140     -7.613603
PC40  -7875.737154  32076.489883 -26054.228001    -61.342759
PC41 -15406.942203   5288.038127  22719.510727   -907.773010
PC42 -14559.397538 -23452.181278  -4172.515221   -446.476319
PC43 -15530.511394  -4599.689293 -22736.940547     64.604151
PC44   8436.339524 -26501.135792  -2073.381734    416.994749
PC45  25969.915684  -8001.327668   6392.666658    -76.203213
PC46  10812.829442  14102.210176 -21534.992248   -132.648519
PE02 -10369.789564  13509.462364 -24220.405493    112.206323
PE03  -8134.026177  24733.211226  14071.015826   -101.153953
PE04  -5045.815258 -28847.150176   4331.917011   -352.579623
PE05 -16315.619538   6238.036291  23904.561058   4730.217511
PE07  14884.482601  16418.465573 -19607.989787   -109.611155
PE08   4531.366923  29021.332682  -3603.854300   -240.867478
PE09 -14746.205372 -16549.430844  19631.226066   -374.933940
PE10  -9416.055244 -12929.752922 -24910.433849   -610.259875
PE11 -18669.780280  -4935.940160 -22448.178617   3156.977315
PE12    149.389553 -18231.362614 -23313.742830   -954.089748
PE13  18117.537067   5419.389307  22771.900896    -20.595056
PE14 -18969.863228   2255.669278 -22492.933157     69.930249
PE15   -785.489230  18433.364611  23157.166829    -91.938503
PE18  12420.592447 -20431.986224  15128.948491    449.500916
PE19   9390.911892 -23228.678307 -15748.733835   -409.836154
PE21  25079.649801    270.605310  15713.575755   -584.592891
PE24 -25531.252987 -14720.089313   2614.191883   -657.998878
PE25 -25253.978597   -576.568696 -15428.065169      2.261455
PE26  26164.389399 -10935.080080   8478.456068    400.007404
PE27  25724.627366  14471.708189  -2314.517140   -301.842271
PE30  10925.190256  20047.959212 -18863.574729   -107.418773
PE31 -11192.872404 -19968.887591  18761.147395    -18.572096
PE33  19324.636680 -20319.238276  -9469.984367      9.180589
PE34 -18904.950507  20481.206103   9964.868647   -100.665645
PE36 -26130.388730  10556.931068  -9077.594020   -200.954774
PG01   3216.922956 -17747.091491 -19725.299002    174.636982
PG02  11760.358707 -20333.267296 -11645.079092   -468.262447
PG03   -276.348632 -15887.093642 -21451.213500    259.432880
PG04   2266.610893 -25842.515572  -5350.945985    317.855104
PG05 -14004.896010   9386.917782  20372.059088   -165.848820
PG06 -21383.922793   2257.757643 -15597.719317    362.492907
PG07  -7978.013473 -13515.769771  21908.634664    -87.126575
PG08   6998.304197 -21473.275837  13521.791101     63.673156
PG09  -7994.026497 -24185.207334   7345.740694    128.893306
PG10  24415.898613  10869.726738   -550.586974     -1.043036
PG11 -23606.491495  11142.642864  -4741.222205   -610.427340
PG12  -2011.220913  15929.574572 -21455.080919   -488.327982
PG13 -13115.048631  13891.952349  18149.879170    635.207613
PG14 -22842.541910 -13487.194256   2762.314640    353.690561
PG15  -4376.931420  22361.379427  12985.434575    138.959189
PG16  19045.557022  -3577.864274  18026.875089   -338.240304
PG17 -12455.143265 -15040.443685 -17510.108197    713.230536
PG18   8243.039257  12430.116418  21988.649612   -577.921900
PG19 -14760.091024  -5538.793725 -21610.966736    455.701819
PG20 -23119.070793   3185.125303  12598.846580    383.478614
PG21  15410.448029 -19589.824713  -7083.507598    130.867734
PG22 -23916.908935  -9850.042576  -4883.803008     14.064690
PG23  18399.275366  15886.581805  10950.204552    179.953605
PG24 -12275.555373  20947.197381 -10680.219632   -447.986537
PG25   9670.555921  17939.406239 -17511.068487    491.619432
PG26  25161.877903   2538.411954   8547.211367    178.022011
PG27  13108.144941 -10439.450035  20217.290511    -12.672223
PG28  20177.970914   -151.539464 -17284.375352   -169.059396
PG29   4329.211445  25487.092568   5792.121824   -604.482139
PG30 -17462.785143  -5307.386220  19516.763711   -418.018328
PG31  23806.182508  -7872.751668  -9557.306719   -227.990919
PG32  14444.384251  11560.897309 -18925.014963   -616.186362
PJ02 -25684.512236  16359.854505 -24558.752462     -3.046120
PJ03 -28290.805075  31228.073974   2477.117403     -0.180299
PJ04      0.000000      0.000000      0.000000 999999.999999
PR01   8425.550234  22845.665163   7582.720016     80.025958
PR02  14443.058911  18600.727039  -9831.711861    -22.606736
PR03  13091.203838   3274.768515 -21605.633705     96.585836
PR04   4408.361378 -13243.420750 -21312.086866    228.118278
PR05  -6414.074581 -22765.619012  -9508.225498    128.586048
PR07 -12762.434901  -2247.720404  22008.882382     78.227893
PR08  -4275.822749  13560.185928  21251.790583    -74.768098
PR09 -20322.807200  -7160.890882  13732.188465    176.027062
PR11 -17425.499360   7474.203665 -17065.060795     30.854419
PR12   2870.114283  11062.291240 -22785.968124     37.947515
PR13  18364.518381   8149.251680 -15737.003618    -45.417820
PR14  25333.897714   -489.985348   2855.365055     26.231154
PR15  16168.085391  -7984.090482  18052.949720     81.250664
PR16  -2639.355008 -10914.417287  22909.828417     24.118336
PR17  15720.616714  -9045.738017  17958.475403     70.083571
PR18  15379.179030 -19988.935583   3629.490936    132.774049
PR19   8920.644139 -21084.191766 -11246.354353   -269.796819
PR20  -6397.343689  -8720.507614 -23090.475016   -109.979619
PR21 -15748.093696   9023.567558 -17914.855724    -85.530759
PR22 -15638.059598  20015.892747  -2420.780277    113.390609
PR24   7521.485499   8233.645678  22955.783315    -48.263127
PR25 -16297.618623   8391.267518 -17726.233325    -23.505160
PR26  -4869.331143  12646.589688  21630.376542    -29.645860
EOF
